{
  "type": "FeatureCollection",
  "features": [
    {
      "type": "Feature",
      "properties": {
        "norad_id": 31307,
        "name": "GALAXY 17 (G-17)",
        "group": "intelsat",
        "lat": 2.420396621272857,
        "lon": 154.40970753161784,
        "alt_km": 35790.13666212546,
        "timestamp": "2025-12-23T09:49:06.743855+00:00",
        "meta_object_name": "GALAXY 17 (G-17)",
        "meta_object_id": "2007-016B",
        "meta_epoch": "2025-12-22T21:19:15.066912",
        "meta_mean_motion": 1.00269711,
        "meta_eccentricity": 0.00053352,
        "meta_inclination": 2.5239,
        "meta_ra_of_asc_node": 82.1716,
        "meta_arg_of_pericenter": 171.6525,
        "meta_mean_anomaly": 72.6914,
        "meta_ephemeris_type": 0,
        "meta_classification_type": "U",
        "meta_norad_cat_id": 31307,
        "meta_element_set_no": 999,
        "meta_rev_at_epoch": 6803,
        "meta_bstar": 0,
        "meta_mean_motion_dot": -1.86e-06,
        "meta_mean_motion_ddot": 0,
        "tle_line1": "1 31307U 07016B   25356.88836883 -.00000186  00000+0  00000+0 0  9995",
        "tle_line2": "2 31307   2.5239  82.1716 0005335 171.6525  72.6914  1.00269711 68038"
      },
      "geometry": {
        "type": "Point",
        "coordinates": [
          154.40970753161784,
          2.420396621272857
        ]
      }
    },
    {
      "type": "Feature",
      "properties": {
        "norad_id": 31862,
        "name": "DIRECTV 10",
        "group": "intelsat",
        "lat": 0.00583630397794807,
        "lon": 136.68057397546863,
        "alt_km": 35785.384497071536,
        "timestamp": "2025-12-23T09:49:06.743867+00:00",
        "meta_object_name": "DIRECTV 10",
        "meta_object_id": "2007-032A",
        "meta_epoch": "2025-12-22T14:23:17.397024",
        "meta_mean_motion": 1.00274167,
        "meta_eccentricity": 2.112e-05,
        "meta_inclination": 0.0071,
        "meta_ra_of_asc_node": 104.9786,
        "meta_arg_of_pericenter": 118.9337,
        "meta_mean_anomaly": 340.5167,
        "meta_ephemeris_type": 0,
        "meta_classification_type": "U",
        "meta_norad_cat_id": 31862,
        "meta_element_set_no": 999,
        "meta_rev_at_epoch": 4382,
        "meta_bstar": 0,
        "meta_mean_motion_dot": -8.2e-07,
        "meta_mean_motion_ddot": 0,
        "tle_line1": "1 31862U 07032A   25356.59950691 -.00000082  00000+0  00000+0 0  9996",
        "tle_line2": "2 31862   0.0071 104.9786 0000211 118.9337 340.5167  1.00274167 43822"
      },
      "geometry": {
        "type": "Point",
        "coordinates": [
          136.68057397546863,
          0.00583630397794807
        ]
      }
    },
    {
      "type": "Feature",
      "properties": {
        "norad_id": 32253,
        "name": "INTELSAT 11 (IS-11)",
        "group": "intelsat",
        "lat": -1.1758254529235652,
        "lon": 58.310591381643455,
        "alt_km": 36166.99696612541,
        "timestamp": "2025-12-23T09:49:06.743878+00:00",
        "meta_object_name": "INTELSAT 11 (IS-11)",
        "meta_object_id": "2007-044B",
        "meta_epoch": "2025-12-22T19:09:49.960224",
        "meta_mean_motion": 0.99052824,
        "meta_eccentricity": 0.0008553,
        "meta_inclination": 3.1047,
        "meta_ra_of_asc_node": 80.8652,
        "meta_arg_of_pericenter": 169.9478,
        "meta_mean_anomaly": 309.7083,
        "meta_ephemeris_type": 0,
        "meta_classification_type": "U",
        "meta_norad_cat_id": 32253,
        "meta_element_set_no": 999,
        "meta_rev_at_epoch": 6670,
        "meta_bstar": 0,
        "meta_mean_motion_dot": -1.28e-06,
        "meta_mean_motion_ddot": 0,
        "tle_line1": "1 32253U 07044B   25356.79849491 -.00000128  00000+0  00000+0 0  9992",
        "tle_line2": "2 32253   3.1047  80.8652 0008553 169.9478 309.7083  0.99052824 66704"
      },
      "geometry": {
        "type": "Point",
        "coordinates": [
          58.310591381643455,
          -1.1758254529235652
        ]
      }
    },
    {
      "type": "Feature",
      "properties": {
        "norad_id": 32388,
        "name": "HORIZONS-2",
        "group": "intelsat",
        "lat": 2.141864309192846,
        "lon": 165.63000379873438,
        "alt_km": 35793.732426043876,
        "timestamp": "2025-12-23T09:49:06.743890+00:00",
        "meta_object_name": "HORIZONS-2",
        "meta_object_id": "2007-063B",
        "meta_epoch": "2025-12-22T21:22:29.757216",
        "meta_mean_motion": 1.00270659,
        "meta_eccentricity": 0.0004651,
        "meta_inclination": 2.1464,
        "meta_ra_of_asc_node": 82.8521,
        "meta_arg_of_pericenter": 195.4042,
        "meta_mean_anomaly": 60.2691,
        "meta_ephemeris_type": 0,
        "meta_classification_type": "U",
        "meta_norad_cat_id": 32388,
        "meta_element_set_no": 999,
        "meta_rev_at_epoch": 6604,
        "meta_bstar": 0,
        "meta_mean_motion_dot": -2.33e-06,
        "meta_mean_motion_ddot": 0,
        "tle_line1": "1 32388U 07063B   25356.89062219 -.00000233  00000+0  00000+0 0  9995",
        "tle_line2": "2 32388   2.1464  82.8521 0004651 195.4042  60.2691  1.00270659 66040"
      },
      "geometry": {
        "type": "Point",
        "coordinates": [
          165.63000379873438,
          2.141864309192846
        ]
      }
    },
    {
      "type": "Feature",
      "properties": {
        "norad_id": 32729,
        "name": "DIRECTV 11",
        "group": "intelsat",
        "lat": 0.0023877790181124296,
        "lon": 140.24666243683382,
        "alt_km": 35784.24905784005,
        "timestamp": "2025-12-23T09:49:06.743902+00:00",
        "meta_object_name": "DIRECTV 11",
        "meta_object_id": "2008-013A",
        "meta_epoch": "2025-12-21T16:09:00.789984",
        "meta_mean_motion": 1.00267418,
        "meta_eccentricity": 8.567e-05,
        "meta_inclination": 0.0458,
        "meta_ra_of_asc_node": 200.3144,
        "meta_arg_of_pericenter": 330.5483,
        "meta_mean_anomaly": 62.6867,
        "meta_ephemeris_type": 0,
        "meta_classification_type": "U",
        "meta_norad_cat_id": 32729,
        "meta_element_set_no": 999,
        "meta_rev_at_epoch": 4381,
        "meta_bstar": 0,
        "meta_mean_motion_dot": -1.03e-06,
        "meta_mean_motion_ddot": 0,
        "tle_line1": "1 32729U 08013A   25355.67292581 -.00000103  00000+0  00000+0 0  9998",
        "tle_line2": "2 32729   0.0458 200.3144 0000856 330.5483  62.6867  1.00267418 43811"
      },
      "geometry": {
        "type": "Point",
        "coordinates": [
          140.24666243683382,
          0.0023877790181124296
        ]
      }
    },
    {
      "type": "Feature",
      "properties": {
        "norad_id": 32951,
        "name": "GALAXY 18 (G-18)",
        "group": "intelsat",
        "lat": 0.013462863290457663,
        "lon": 116.45032175520798,
        "alt_km": 35797.53670495665,
        "timestamp": "2025-12-23T09:49:06.743914+00:00",
        "meta_object_name": "GALAXY 18 (G-18)",
        "meta_object_id": "2008-024A",
        "meta_epoch": "2025-12-22T17:42:58.277664",
        "meta_mean_motion": 1.00271901,
        "meta_eccentricity": 0.00029085,
        "meta_inclination": 0.018,
        "meta_ra_of_asc_node": 293.7428,
        "meta_arg_of_pericenter": 342.0585,
        "meta_mean_anomaly": 318.4704,
        "meta_ephemeris_type": 0,
        "meta_classification_type": "U",
        "meta_norad_cat_id": 32951,
        "meta_element_set_no": 999,
        "meta_rev_at_epoch": 4408,
        "meta_bstar": 0,
        "meta_mean_motion_dot": 4.7e-07,
        "meta_mean_motion_ddot": 0,
        "tle_line1": "1 32951U 08024A   25356.73817451  .00000047  00000+0  00000+0 0  9990",
        "tle_line2": "2 32951   0.0180 293.7428 0002908 342.0585 318.4704  1.00271901 44086"
      },
      "geometry": {
        "type": "Point",
        "coordinates": [
          116.45032175520798,
          0.013462863290457663
        ]
      }
    },
    {
      "type": "Feature",
      "properties": {
        "norad_id": 33153,
        "name": "INTELSAT 25 (IS-25)",
        "group": "intelsat",
        "lat": 1.831088477928333,
        "lon": -152.05320065116493,
        "alt_km": 35775.745161997664,
        "timestamp": "2025-12-23T09:49:06.743925+00:00",
        "meta_object_name": "INTELSAT 25 (IS-25)",
        "meta_object_id": "2008-034A",
        "meta_epoch": "2025-12-22T18:09:03.279744",
        "meta_mean_motion": 1.00272866,
        "meta_eccentricity": 0.00048088,
        "meta_inclination": 2.2519,
        "meta_ra_of_asc_node": 82.5437,
        "meta_arg_of_pericenter": 186.4305,
        "meta_mean_anomaly": 63.3431,
        "meta_ephemeris_type": 0,
        "meta_classification_type": "U",
        "meta_norad_cat_id": 33153,
        "meta_element_set_no": 999,
        "meta_rev_at_epoch": 6392,
        "meta_bstar": 0,
        "meta_mean_motion_dot": -2.04e-06,
        "meta_mean_motion_ddot": 0,
        "tle_line1": "1 33153U 08034A   25356.75628796 -.00000204  00000+0  00000+0 0  9996",
        "tle_line2": "2 33153   2.2519  82.5437 0004808 186.4305  63.3431  1.00272866 63924"
      },
      "geometry": {
        "type": "Point",
        "coordinates": [
          -152.05320065116493,
          1.831088477928333
        ]
      }
    }
  ]
}